CALSPHERE 1             
1 00900U 64063C   13128.12447495  .00000173  00000-0  18146-3 0  9915
2 00900  90.1412 349.2233 0025633 301.6512  58.2150 13.71494036414133
CALSPHERE 2             
1 00902U 64063E   13128.15090444  .00000034  00000-0  38049-4 0  8165
2 00902  90.1432 351.6921 0020084  87.1329  59.3697 13.52543295209439
LCS 1                   
1 01361U 65034C   13125.16282105  .00000008  00000-0  00000+0 0  4460
2 01361  32.1451  32.4358 0007121  89.6045  84.5484  9.89284098735776
TEMPSAT 1               
1 01512U 65065E   13126.84816932  .00000008  00000-0 -28106-5 0  8748
2 01512  89.7860 271.6596 0069844  17.1807 130.7670 13.33319950321793
CALSPHERE 4(A)          
1 01520U 65065H   13127.50411359  .00000058  00000-0  98467-4 0   512
2 01520  90.1374 106.3014 0067557 285.1620 170.5613 13.35496576323801
OPS 5712 (P/L 160)      
1 02826U 67053A   13128.18172600  .00002196  00000-0  69049-3 0  8931
2 02826  69.9308 134.3583 0007267 316.1545  43.9007 14.41725009371781
OPS 5712 (P/L 153)      
1 02874U 67053H   13128.51941943  .00000018  00000-0  51661-4 0  3999
2 02874  69.9745 289.6927 0009953 284.8221 110.7283 13.96075949338907
SURCAL 150B             
1 02909U 67053J   13127.82403858  .00003286  00000-0  84305-3 0   952
2 02909  69.9541 267.5229 0002385 134.2434  33.7841 14.51121095378630
RIGIDSPHERE 2 (LCS 4)   
1 05398U 71067E   13128.21543226  .00000630  00000-0  22239-3 0  7781
2 05398  87.6278 219.4054 0065716 185.9036 203.5702 14.32099050187858
